[{"OBJECT_NAME":"LYNK TOWER 4","OBJECT_ID":"2023-001AB","EPOCH":"2026-03-09T16:15:30.644928","MEAN_MOTION":15.31819885,"ECCENTRICITY":0.00103213,"INCLINATION":97.3324,"RA_OF_ASC_NODE":128.594,"ARG_OF_PERICENTER":112.3386,"MEAN_ANOMALY":247.895,"EPHEMERIS_TYPE":0,"CLASSIFICATION_TYPE":"U","NORAD_CAT_ID":55034,"ELEMENT_SET_NO":999,"REV_AT_EPOCH":17658,"BSTAR":0.00030013829,"MEAN_MOTION_DOT":9.16e-5,"MEAN_MOTION_DDOT":0},{"OBJECT_NAME":"STARLINK-33588","OBJECT_ID":"2025-015Z","EPOCH":"2026-03-09T23:13:57.069696","MEAN_MOTION":15.30204109,"ECCENTRICITY":7.75e-5,"INCLINATION":53.1594,"RA_OF_ASC_NODE":318.9776,"ARG_OF_PERICENTER":95.2611,"MEAN_ANOMALY":264.8478,"EPHEMERIS_TYPE":0,"CLASSIFICATION_TYPE":"U","NORAD_CAT_ID":62781,"ELEMENT_SET_NO":999,"REV_AT_EPOCH":6455,"BSTAR":0.00065992311,"MEAN_MOTION_DOT":0.00019239,"MEAN_MOTION_DDOT":0}]
